{"type": "FeatureCollection", "features": [{"type": "Feature", "properties": {"norad_id": 2807, "name": "OPS 7218 (TRANSIT 16)", "group": "nnss", "lat": 78.56000613570936, "lon": 172.4831022652709, "alt_km": 1047.0331694297565, "timestamp": "2025-12-10T05:46:14.090675+00:00", "meta": {"OBJECT_NAME": "OPS 7218 (TRANSIT 16)", "OBJECT_ID": "1967-048A", "EPOCH": "2025-12-09T19:27:21.539808", "MEAN_MOTION": 13.50721437, "ECCENTRICITY": 0.0021833, "INCLINATION": 89.6732, "RA_OF_ASC_NODE": 354.1134, "ARG_OF_PERICENTER": 121.9159, "MEAN_ANOMALY": 51.0026, "EPHEMERIS_TYPE": 0, "CLASSIFICATION_TYPE": "U", "NORAD_CAT_ID": 2807, "ELEMENT_SET_NO": 999, "REV_AT_EPOCH": 88236, "BSTAR": 0.00021843, "MEAN_MOTION_DOT": 1.51e-06, "MEAN_MOTION_DDOT": 0}, "tle": {"line1": "1 02807U 67048A   25343.81066597  .00000151  00000+0  21843-3 0  9998", "line2": "2 02807  89.6732 354.1134 0021833 121.9159  51.0026 13.50721437882364"}}, "geometry": {"type": "Point", "coordinates": [172.4831022652709, 78.56000613570936]}}, {"type": "Feature", "properties": {"norad_id": 2965, "name": "OPS 4947 (TRANSIT 17)", "group": "nnss", "lat": 38.98880984074408, "lon": -155.9810833956418, "alt_km": 1063.130923270296, "timestamp": "2025-12-10T05:46:14.090700+00:00", "meta": {"OBJECT_NAME": "OPS 4947 (TRANSIT 17)", "OBJECT_ID": "1967-092A", "EPOCH": "2025-12-09T09:36:30.324672", "MEAN_MOTION": 13.53452312, "ECCENTRICITY": 0.00459991, "INCLINATION": 89.2499, "RA_OF_ASC_NODE": 24.6904, "ARG_OF_PERICENTER": 244.5157, "MEAN_ANOMALY": 126.0877, "EPHEMERIS_TYPE": 0, "CLASSIFICATION_TYPE": "U", "NORAD_CAT_ID": 2965, "ELEMENT_SET_NO": 999, "REV_AT_EPOCH": 87052, "BSTAR": 0.00025971381, "MEAN_MOTION_DOT": 1.87e-06, "MEAN_MOTION_DDOT": 0}, "tle": {"line1": "1 02965U 67092A   25343.40035098  .00000187  00000+0  25971-3 0  9994", "line2": "2 02965  89.2499  24.6904 0045999 244.5157 126.0877 13.53452312870526"}}, "geometry": {"type": "Point", "coordinates": [-155.9810833956418, 38.98880984074408]}}, {"type": "Feature", "properties": {"norad_id": 3133, "name": "OPS 7034 (TRANSIT 18)", "group": "nnss", "lat": -51.85167633183894, "lon": -86.33314644694111, "alt_km": 1109.8371134955541, "timestamp": "2025-12-10T05:46:14.090715+00:00", "meta": {"OBJECT_NAME": "OPS 7034 (TRANSIT 18)", "OBJECT_ID": "1968-012A", "EPOCH": "2025-12-09T19:29:54.021984", "MEAN_MOTION": 13.51564681, "ECCENTRICITY": 0.0073569, "INCLINATION": 90.0276, "RA_OF_ASC_NODE": 273.6305, "ARG_OF_PERICENTER": 177.6268, "MEAN_ANOMALY": 208.6684, "EPHEMERIS_TYPE": 0, "CLASSIFICATION_TYPE": "U", "NORAD_CAT_ID": 3133, "ELEMENT_SET_NO": 999, "REV_AT_EPOCH": 56879, "BSTAR": 0.00027275, "MEAN_MOTION_DOT": 1.9e-06, "MEAN_MOTION_DDOT": 0}, "tle": {"line1": "1 03133U 68012A   25343.81243081  .00000190  00000+0  27275-3 0  9996", "line2": "2 03133  90.0276 273.6305 0073569 177.6268 208.6684 13.51564681568798"}}, "geometry": {"type": "Point", "coordinates": [-86.33314644694111, -51.85167633183894]}}, {"type": "Feature", "properties": {"norad_id": 4507, "name": "NNSS 19 (TRANSIT 19)", "group": "nnss", "lat": -79.37117537681331, "lon": -125.43754855055285, "alt_km": 955.1888778899392, "timestamp": "2025-12-10T05:46:14.090727+00:00", "meta": {"OBJECT_NAME": "NNSS 19 (TRANSIT 19)", "OBJECT_ID": "1970-067A", "EPOCH": "2025-12-09T10:36:12.002112", "MEAN_MOTION": 13.51314006, "ECCENTRICITY": 0.01707452, "INCLINATION": 90.0057, "RA_OF_ASC_NODE": 234.5316, "ARG_OF_PERICENTER": 303.0164, "MEAN_ANOMALY": 55.4679, "EPHEMERIS_TYPE": 0, "CLASSIFICATION_TYPE": "U", "NORAD_CAT_ID": 4507, "ELEMENT_SET_NO": 999, "REV_AT_EPOCH": 72177, "BSTAR": 0.00031890867, "MEAN_MOTION_DOT": 2.34e-06, "MEAN_MOTION_DDOT": 0}, "tle": {"line1": "1 04507U 70067A   25343.44180558  .00000234  00000+0  31891-3 0  9991", "line2": "2 04507  90.0057 234.5316 0170745 303.0164  55.4679 13.51314006721778"}}, "geometry": {"type": "Point", "coordinates": [-125.43754855055285, -79.37117537681331]}}, {"type": "Feature", "properties": {"norad_id": 6909, "name": "NNSS 20 (TRANSIT 20)", "group": "nnss", "lat": 4.882756958031891, "lon": 75.07920942851256, "alt_km": 993.5750875524263, "timestamp": "2025-12-10T05:46:14.090739+00:00", "meta": {"OBJECT_NAME": "NNSS 20 (TRANSIT 20)", "OBJECT_ID": "1973-081A", "EPOCH": "2025-12-09T11:25:36.409440", "MEAN_MOTION": 13.71432035, "ECCENTRICITY": 0.0156617, "INCLINATION": 89.8562, "RA_OF_ASC_NODE": 255.103, "ARG_OF_PERICENTER": 87.977, "MEAN_ANOMALY": 273.932, "EPHEMERIS_TYPE": 0, "CLASSIFICATION_TYPE": "U", "NORAD_CAT_ID": 6909, "ELEMENT_SET_NO": 999, "REV_AT_EPOCH": 80316, "BSTAR": 0.00036387222, "MEAN_MOTION_DOT": 3.69e-06, "MEAN_MOTION_DDOT": 0}, "tle": {"line1": "1 06909U 73081A   25343.47611585  .00000369  00000+0  36387-3 0  9994", "line2": "2 06909  89.8562 255.1030 0156617  87.9770 273.9320 13.71432035803167"}}, "geometry": {"type": "Point", "coordinates": [75.07920942851256, 4.882756958031891]}}, {"type": "Feature", "properties": {"norad_id": 10457, "name": "TRANSAT", "group": "nnss", "lat": -52.20408970973286, "lon": 78.23149358604505, "alt_km": 1089.8547883786896, "timestamp": "2025-12-10T05:46:14.090750+00:00", "meta": {"OBJECT_NAME": "TRANSAT", "OBJECT_ID": "1977-106A", "EPOCH": "2025-12-09T18:23:16.357920", "MEAN_MOTION": 13.48943, "ECCENTRICITY": 0.002511, "INCLINATION": 89.6481, "RA_OF_ASC_NODE": 78.7023, "ARG_OF_PERICENTER": 198.1954, "MEAN_ANOMALY": 327.5817, "EPHEMERIS_TYPE": 0, "CLASSIFICATION_TYPE": "U", "NORAD_CAT_ID": 10457, "ELEMENT_SET_NO": 999, "REV_AT_EPOCH": 36703, "BSTAR": 0.00021291, "MEAN_MOTION_DOT": 1.44e-06, "MEAN_MOTION_DDOT": 0}, "tle": {"line1": "1 10457U 77106A   25343.76616155  .00000144  00000+0  21291-3 0  9998", "line2": "2 10457  89.6481  78.7023 0025110 198.1954 327.5817 13.48943000367032"}}, "geometry": {"type": "Point", "coordinates": [78.23149358604505, -52.20408970973286]}}, {"type": "Feature", "properties": {"norad_id": 12458, "name": "NOVA 1", "group": "nnss", "lat": 79.62855703097192, "lon": 92.22743765911646, "alt_km": 1154.6415569803403, "timestamp": "2025-12-10T05:46:14.090761+00:00", "meta": {"OBJECT_NAME": "NOVA 1", "OBJECT_ID": "1981-044A", "EPOCH": "2025-12-09T17:32:56.257152", "MEAN_MOTION": 13.23278034, "ECCENTRICITY": 0.0015825, "INCLINATION": 89.8524, "RA_OF_ASC_NODE": 91.4277, "ARG_OF_PERICENTER": 111.3717, "MEAN_ANOMALY": 63.8823, "EPHEMERIS_TYPE": 0, "CLASSIFICATION_TYPE": "U", "NORAD_CAT_ID": 12458, "ELEMENT_SET_NO": 999, "REV_AT_EPOCH": 15146, "BSTAR": 0.00021671, "MEAN_MOTION_DOT": 1.01e-06, "MEAN_MOTION_DDOT": 0}, "tle": {"line1": "1 12458U 81044A   25343.73120668  .00000101  00000+0  21671-3 0  9998", "line2": "2 12458  89.8524  91.4277 0015825 111.3717  63.8823 13.23278034151460"}}, "geometry": {"type": "Point", "coordinates": [92.22743765911646, 79.62855703097192]}}, {"type": "Feature", "properties": {"norad_id": 15362, "name": "NOVA 3", "group": "nnss", "lat": -45.70635939479632, "lon": 80.63069109975984, "alt_km": 1158.7906048014447, "timestamp": "2025-12-10T05:46:14.090771+00:00", "meta": {"OBJECT_NAME": "NOVA 3", "OBJECT_ID": "1984-110A", "EPOCH": "2025-12-09T13:43:18.996096", "MEAN_MOTION": 13.23044071, "ECCENTRICITY": 0.0030735, "INCLINATION": 90.1223, "RA_OF_ASC_NODE": 80.4974, "ARG_OF_PERICENTER": 340.9141, "MEAN_ANOMALY": 30.4969, "EPHEMERIS_TYPE": 0, "CLASSIFICATION_TYPE": "U", "NORAD_CAT_ID": 15362, "ELEMENT_SET_NO": 999, "REV_AT_EPOCH": 98657, "BSTAR": 0.00021782, "MEAN_MOTION_DOT": 1e-06, "MEAN_MOTION_DDOT": 0}, "tle": {"line1": "1 15362U 84110A   25343.57174764  .00000100  00000+0  21782-3 0  9992", "line2": "2 15362  90.1223  80.4974 0030735 340.9141  30.4969 13.23044071986579"}}, "geometry": {"type": "Point", "coordinates": [80.63069109975984, -45.70635939479632]}}, {"type": "Feature", "properties": {"norad_id": 15935, "name": "OSCAR 30", "group": "nnss", "lat": -82.06684167649439, "lon": 100.99102365137726, "alt_km": 1257.5220923918869, "timestamp": "2025-12-10T05:46:14.090782+00:00", "meta": {"OBJECT_NAME": "OSCAR 30", "OBJECT_ID": "1985-066A", "EPOCH": "2025-12-09T18:25:09.306048", "MEAN_MOTION": 13.3607769, "ECCENTRICITY": 0.0169422, "INCLINATION": 90.165, "RA_OF_ASC_NODE": 99.7985, "ARG_OF_PERICENTER": 92.2003, "MEAN_ANOMALY": 72.3872, "EPHEMERIS_TYPE": 0, "CLASSIFICATION_TYPE": "U", "NORAD_CAT_ID": 15935, "ELEMENT_SET_NO": 999, "REV_AT_EPOCH": 96413, "BSTAR": 0.00028719, "MEAN_MOTION_DOT": 1.7e-06, "MEAN_MOTION_DDOT": 0}, "tle": {"line1": "1 15935U 85066A   25343.76746882  .00000170  00000+0  28719-3 0  9990", "line2": "2 15935  90.1650  99.7985 0169422  92.2003  72.3872 13.36077690964137"}}, "geometry": {"type": "Point", "coordinates": [100.99102365137726, -82.06684167649439]}}, {"type": "Feature", "properties": {"norad_id": 15936, "name": "OSCAR 24", "group": "nnss", "lat": -7.20065617187691, "lon": 92.28369893336976, "alt_km": 1157.9996848966239, "timestamp": "2025-12-10T05:46:14.090793+00:00", "meta": {"OBJECT_NAME": "OSCAR 24", "OBJECT_ID": "1985-066B", "EPOCH": "2025-12-09T13:41:01.087008", "MEAN_MOTION": 13.35935118, "ECCENTRICITY": 0.0170472, "INCLINATION": 90.1788, "RA_OF_ASC_NODE": 92.2493, "ARG_OF_PERICENTER": 99.1842, "MEAN_ANOMALY": 273.8521, "EPHEMERIS_TYPE": 0, "CLASSIFICATION_TYPE": "U", "NORAD_CAT_ID": 15936, "ELEMENT_SET_NO": 999, "REV_AT_EPOCH": 96601, "BSTAR": 0.00024605, "MEAN_MOTION_DOT": 1.47e-06, "MEAN_MOTION_DDOT": 0}, "tle": {"line1": "1 15936U 85066B   25343.57015147  .00000147  00000+0  24605-3 0  9997", "line2": "2 15936  90.1788  92.2493 0170472  99.1842 273.8521 13.35935118966011"}}, "geometry": {"type": "Point", "coordinates": [92.28369893336976, -7.20065617187691]}}]}